#cP2015  4  2  0  0  0.00000000      96 ORBIT IGb08 HLM  IGS
## 1838 345600.00000000   900.00000000 57114 0.0000000000000
+   32   G01G02G03G04G05G06G07G08G09G10G11G12G13G14G15G16G17
+        G18G19G20G21G22G23G24G25G26G27G28G29G30G31G32  0  0
+          0  0  0  0  0  0  0  0  0  0  0  0  0  0  0  0  0
+          0  0  0  0  0  0  0  0  0  0  0  0  0  0  0  0  0
+          0  0  0  0  0  0  0  0  0  0  0  0  0  0  0  0  0
++         2  2  3  2  2  2  2  3  2  3  2  2  2  2  2  2  2
++         2  2  2  2  2  3  2  2  0  2  2  3  2  2  3  0  0
++         0  0  0  0  0  0  0  0  0  0  0  0  0  0  0  0  0
++         0  0  0  0  0  0  0  0  0  0  0  0  0  0  0  0  0
++         0  0  0  0  0  0  0  0  0  0  0  0  0  0  0  0  0
%c G  cc GPS ccc cccc cccc cccc cccc ccccc ccccc ccccc ccccc
%c cc cc ccc ccc cccc cccc cccc cccc ccccc ccccc ccccc ccccc
%f  1.2500000  1.025000000  0.00000000000  0.000000000000000
%f  0.0000000  0.000000000  0.00000000000  0.000000000000000
%i    0    0    0    0      0      0      0      0         0
%i    0    0    0    0      0      0      0      0         0
/* FINAL ORBIT COMBINATION FROM WEIGHTED AVERAGE OF:        
/* cod emr esa gfz grg jpl mit ngs sio                      
/* REFERENCED TO IGS TIME (IGST) AND TO WEIGHTED MEAN POLE: 
/* PCV:IGS08_1837 OL/AL:FES2004  NONE     Y  ORB:CMB CLK:CMB
*  2015  4  2  9  0  0.00000000
PG01   5269.811725  14377.343091 -21759.045058     -7.280724  6  6  4 123       
PG02  17104.873502 -14841.021751  13858.679132    557.250237  5  5  5  58       
PG03  11856.595221  22010.035791  -8897.842799    280.761433  9  8  8  86       
PG04  -5388.115694  16564.186723 -20301.972108    -10.343596  6  5  4 102       
PG05   5563.119638 -15726.105406  20581.761741   -259.070392  5  4  5  85       
PG06  25818.751654  -6195.673847    438.590551    124.967299  6  5  7  86       
PG07  18982.456175   8093.444970  17022.075808    452.294471  7  6  3  65       
PG08 -20401.066129  10400.468810  13093.511776     19.094551  6  8  7 119       
PG09  10041.795296  14635.335915  19743.843484   -127.857169  6  5  4  76       
PG10  19746.523877   3007.985243  17324.595131   -169.402236  3  5  6 108       
PG11     94.332976  18532.324206 -19515.411511   -568.542824  7  8  5 107       
PG12  -8818.096624 -22347.400160 -11664.388609    281.482450  9  9  8 101       
PG13  12899.881520 -22940.208199   3888.529175   -102.055319  6  7  4  92       
PG14 -16704.621797   5304.639063 -19674.209486     73.920675  6  7  7  90       
PG15   2173.612543 -25650.627493  -5906.014711   -241.218693  8  6  6  84       
PG16  -6161.748106  14508.142892  21235.450978   -142.533725  5  5  6 119       
PG17  16128.398032  -3539.218919 -20462.398837   -164.248213  4  6  5 115       
PG18 -21254.759245 -14146.557943  -7380.798663    390.839181  6  8  4 101       
PG19  -7649.631387  24924.808922  -3693.183656   -506.021204  8  7  6  92       
PG20  16765.948188  -4762.523773  19914.607548    306.039832  6  6  3  92       
PG21 -21870.533287  -6003.612223  14814.902287   -432.523132  8  9  7  90       
PG22 -20385.624821  -3167.023694 -16595.879408    335.207027  5  8  5  94       
PG23   3151.951926  22437.884443  13635.409554    -99.191834  9  9  5 120       
PG24  -1966.574507 -15315.491458 -21638.927271    -46.000478  7  7  7  87       
PG25 -18015.615332 -19641.342587   -157.501617    -16.112822  6  7  4 121       
PG26 -20686.484262 -15657.677853   6452.174672 999999.999999
PG27 -12329.356107  22182.916700   7634.323391     62.109988  6  6  6  94       
PG28  19788.214867   9581.704488 -14346.363721    430.132568  8  2  6  87       
PG29  -6806.260670 -17883.463285  18472.410725    601.778425  8  8  7 109       
PG30  25230.323322   2063.582829   8121.952830    -75.239664  4  6  4  91       
PG31 -25406.570137   7502.707305   3820.356458    319.624063  4  6  6 108       
PG32  -1855.743953  19205.251606 -18489.489889   -186.251255  8  7  6 150       
*  2015  4  2  9 15  0.00000000
PG01   2864.275803  14982.740171 -21784.336734     -7.280325  6  6  4 124       
PG02  18548.195745 -14978.364222  11568.395979    557.252249  5  5  5  75       
PG03  10873.437431  21343.095186 -11421.815779    280.775018  9  8  8  99       
PG04  -7553.977734  17023.611834 -19158.482772    -10.343966  6  5  4  98       
PG05   7320.027838 -14074.405016  21231.956204   -259.065876  4  3  4  86       
PG06  25773.568791  -5921.932549  -2416.883437    124.976406  6  5  7  99       
PG07  17049.973988   8659.501839  18683.931235    452.297051  8  6  2  79       
PG08 -21754.660329  10396.830782  10591.318314     19.095436  7  8  8 140       
PG09   9348.106712  16711.345716  18389.517434   -127.865119  6  5  4  88       
PG10  20962.632365   4526.362862  15550.541604   -169.405163  4  6  7 109       
PG11  -1749.114079  19556.329459 -18360.388013   -568.545040  7  8  5 113       
PG12  -7759.265340 -21356.484792 -14030.145330    281.485343 10  9  8  94       
PG13  12859.675981 -22290.018606   6679.225381   -102.058525  7  7  4 104       
PG14 -15997.918721   3050.092062 -20713.997339     73.918120  7  7  7  83       
PG15   2627.168906 -26076.486355  -3151.703103   -241.220727  8  6  5  84       
PG16  -7827.066867  12669.291056  21885.343030   -142.530306  5  6  6 116       
PG17  15445.466349  -1185.965391 -21253.294186   -164.249933  5  6  4 116       
PG18 -21562.258297 -14899.780656  -4729.989565    390.842035  6  8  5  92       
PG19  -7984.705376  25055.675064   -809.665583   -506.022660  8  6  6  94       
PG20  18368.298262  -3169.521775  18805.845777    306.043036  7  6  3  98       
PG21 -20294.784365  -6634.627660  16721.652510   -432.526506  8  9  7  94       
PG22 -21530.554991  -4619.801479 -14746.450661    335.210631  5  8  5 100       
PG23   2515.360844  23739.200337  11307.105149    -99.194103  9  8  6 116       
PG24    406.905454 -15928.479699 -21265.367145    -46.000460  7  7  7  91       
PG25 -17758.828925 -19654.053666  -3030.465917    -16.115664  6  7  5 126       
PG26 -20916.760589 -16224.082704   3680.111505 999999.999999
PG27 -12278.338059  21132.412413  10254.327964     62.112309  6  6  6  60       
PG28  20712.454459  10890.485309 -12026.946813    430.134961  8  3  6  99       
PG29  -6049.087915 -19745.776850  16761.424881    601.780693  8  8  6 105       
PG30  24213.593419   2489.962534  10683.866025    -75.236594  4  6  4  99       
PG31 -25697.767819   7378.509797    972.759548    319.622933  6  7  6 102       
PG32  -3335.102540  17606.411616 -19778.996844   -186.242647  8  6  6 147       
*  2015  4  2  9 30  0.00000000
PG01    509.399121  15708.327867 -21436.221351     -7.279896  6  5  5 104       
PG02  19732.900002 -15093.005697   9077.683292    557.254386  5  5  6  72       
PG03   9652.859267  20544.081008 -13748.702662    280.788600  9  7  8  94       
PG04  -9560.171616  17542.370307 -17691.163398    -10.344580  6  5  4 101       
PG05   9195.010654 -12477.934970  21514.500893   -259.061222  4  3  4  93       
PG06  25437.539550  -5546.503335  -5230.735921    124.985552  7  5  7 110       
PG07  14987.324799   9379.090809  20030.526046    452.299575  8  6  2  88       
PG08 -22816.458802  10412.907089   7902.175841     19.095984  7  8  8 123       
PG09   8797.406001  18652.739106  16718.332272   -127.872960  6  5  4  81       
PG10  22090.469850   5831.601381  13506.727673   -169.405974  5  6  7 101       
PG11  -3436.958003  20571.517955 -16900.591576   -568.547343  7  7  5 104       
PG12  -6464.437538 -20250.087793 -16158.339218    281.488120 10  9  8  78       
PG13  12758.775242 -21343.471006   9355.283186   -102.062077  7  6  4  89       
PG14 -15382.526080    667.955481 -21388.775574     73.915196  7  7  8  75       
PG15   3009.025810 -26211.711000   -342.149763   -241.222825  8  5  5  68       
PG16  -9627.532422  10892.250941  22154.885230   -142.527102  5  6  6 114       
PG17  14870.733781   1265.898226 -21667.548370   -164.251777  7  7  4 117       
PG18 -21678.614550 -15434.610665  -1998.384357    390.844611  6  8  6 106       
PG19  -8215.021182  24887.286322   2088.169257   -506.023435  7  5  5  95       
PG20  19928.737652  -1742.895475  17370.466249    306.046826  7  6  3  96       
PG21 -18569.855378  -7403.745178  18358.072608   -432.530049  8  8  7  90       
PG22 -22572.262959  -5868.641958 -12641.560723    335.214275  5  7  5 110       
PG23   2000.956853  24802.427644   8780.996269    -99.196349  8  8  6 115       
PG24   2687.948000 -16641.870382 -20526.407983    -46.001964  7  7  7 102       
PG25 -17264.347114 -19465.846458  -5851.869486    -16.118515  5  7  5 100       
PG26 -20943.134386 -16568.995976    845.884269 999999.999999
PG27 -12223.881880  19799.442083  12696.738645     62.114660  6  6  6  62       
PG28  21513.657958  11939.735027  -9494.567007    430.137466  9  4  6  95       
PG29  -5448.134967 -21443.515853  14763.207784    601.782581  8  8  6 108       
PG30  22948.650572   3034.216958  13062.367935    -75.233543  4  5  4  87       
PG31 -25687.399549   7180.098223  -1891.208534    319.622197  7  7  6 103       
PG32  -4983.467749  15989.937854 -20733.043300   -186.233924  8  6  6 145       
EOF
